{"type": "FeatureCollection", "features": [{"type": "Feature", "properties": {"OBJECTID": 10, "cable_id": 1046, "Name": "Columbus-III", "color": "#958047", "length": "9,833 km", "rfs": "December 1999", "owners": "Telecom Italia Sparkle,  AT&T,  Verizon,  Telefonica,  Portugal Telecom,  CANTV,  Tata Communications,  Ukrtelecom,  Telkom South Africa,  Telecom Argentina,  Instituto Costarricense de Electricidad,  Embratel", "url": null, "Symbol": 21, "year": 1999}, "geometry": {"type": "MultiLineString", "coordinates": [[[-80.1601719996297, 26.010552999829], [-73.1583209999025, 31.5400999998756], [-57.4456860000873, 31.5400999998756], [-30.9913590002557, 35.8714899997333], [-6.1834660003816, 35.916583000346]], [[-10.849234000206, 35.9081989999278], [-9.14806399978192, 38.7238460002566]], [[-6.1834660003816, 35.916583000346], [-5.32042999998872, 35.9182439997828], [-2.10915300031346, 35.7867710002301], [2.38806099997056, 37.5976789999667], [10.8454770004477, 37.6776409998843], [12.5913740002905, 37.6505839999484]], [[-6.08712800041791, 36.2767209996864], [-6.1834660003816, 35.916583000346]], [[-25.6687059996205, 37.7396029999395], [-26.1797900002261, 35.8802729998535]]]}}, {"type": "Feature", "properties": {"OBJECTID": 15, "cable_id": 1068, "Name": "Cayman-Jamaica Fiber System", "color": "#f89635", "length": "870 km", "rfs": "June 1997", "owners": "C&W Networks", "url": null, "Symbol": 5, "year": 1997}, "geometry": {"type": "LineString", "coordinates": [[-76.7920589995776, 17.9924069999985], [-78.5111009996472, 17.4396550001702], [-79.8776519999792, 19.6904250004178], [-79.9856600003242, 19.280653999917], [-80.842691000198, 18.9749820000494], [-81.1667630000151, 19.2829579996917]]}}, {"type": "Feature", "properties": {"OBJECTID": 16, "cable_id": 1069, "Name": "Bahamas 2", "color": "#91a34b", "length": "470 km", "rfs": "June 1997", "owners": "AT&T,  Telefonica,  Verizon", "url": null, "Symbol": 2, "year": 1997}, "geometry": {"type": "LineString", "coordinates": [[-80.3942540001339, 27.6387359996426], [-78.8020179996193, 26.5396260001159], [-77.3402029999245, 25.067215000301]]}}, {"type": "Feature", "properties": {"OBJECTID": 17, "cable_id": 1070, "Name": "Mid-Atlantic Crossing (MAC)", "color": "#f37380", "length": "7,500 km", "rfs": "June 2000", "owners": "Level 3", "url": "http://www.level3.com", "Symbol": 14, "year": 2000}, "geometry": {"type": "LineString", "coordinates": [[-73.4771200003929, 34.8312860001147], [-80.1601719996297, 26.010552999829], [-71.8080289995632, 30.6120389997119], [-64.8192650000516, 17.773909999653], [-72.9122760000124, 40.7735179997348], [-73.4771200003929, 34.8312860001147]]}}, {"type": "Feature", "properties": {"OBJECTID": 18, "cable_id": 1071, "Name": "Maya-1", "color": "#f04230", "length": "4,400 km", "rfs": "October 2000", "owners": "Verizon,  Tata Communications,  AT&T,  Sprint,  Hondutel,  CANTV,  Telefonica,  BT,  Orbitel,  Telecom Italia Sparkle,  C&W Networks,  Entel Chile,  Telmex,  Embratel,  ETB,  Alestra,  Instituto Costarricense de Electricidad", "url": "http://www.maya-1.com", "Symbol": 6, "year": 2000}, "geometry": {"type": "MultiLineString", "coordinates": [[[-79.7535310001297, 9.43762499961785], [-77.9508469996014, 11.8679490000848]], [[-83.0376600003146, 9.98859399964471], [-79.9397129998165, 13.9643710003121]], [[-77.9508469996014, 11.8679490000848], [-75.5586609996265, 9.49638399994144]], [[-79.9397129998165, 13.9643710003121], [-77.9508469996014, 11.8679490000848]], [[-87.9461530001138, 15.8449860003078], [-84.7820919997442, 19.0193959997393]], [[-83.0035780001818, 17.2036039999563], [-79.9397129998165, 13.9643710003121]], [[-83.0035780001818, 17.2036039999563], [-81.1667630000151, 19.2829579996917]], [[-84.7820919997442, 19.0193959997393], [-83.0035780001818, 17.2036039999563]], [[-86.7675889996403, 21.0957250000442], [-86.1079210001129, 21.3599839999958]], [[-86.1079210001129, 21.3599839999958], [-86.1079210001129, 20.3688159999396], [-84.7820919997442, 19.0193959997393]], [[-80.1601719996297, 26.010552999829], [-79.6481599998097, 24.6145420002919], [-81.0665190003302, 24.0750140000461], [-83.5111949996607, 24.0750140000461], [-86.1079210001129, 21.6689709998355], [-86.1079210001129, 21.3599839999958]]]}}, {"type": "Feature", "properties": {"OBJECTID": 19, "cable_id": 1072, "Name": "Pan-American Crossing (PAC)", "color": "#ffd633", "length": "10,000 km", "rfs": "March 2000", "owners": "Level 3", "url": "http://www.level3.com", "Symbol": 18, "year": 2000}, "geometry": {"type": "MultiLineString", "coordinates": [[[-85.6208119995813, 7.37770099972526], [-81.4011860001029, 5.16936999995498], [-79.6248209997704, 7.96071699970023], [-79.5465489996211, 8.93411000012268]], [[-85.6208119995813, 7.37770099972526], [-84.4522100003, 9.52585599965732]], [[-108.879047999853, 19.2676559999135], [-85.6208119995813, 7.37770099972526]], [[-106.421871999938, 23.1997200003786], [-108.879047999853, 19.2676559999135]], [[-119.522985999896, 30.7895500002982], [-112.245549000077, 20.9310870003554], [-108.879047999853, 19.2676559999135]], [[-119.522985999896, 30.7895500002982], [-117.038222000089, 32.5310139999756]], [[-120.621519999904, 35.1209529999543], [-121.143102000381, 32.8642570000477], [-119.522985999896, 30.7895500002982]]]}}, {"type": "Feature", "properties": {"OBJECTID": 20, "cable_id": 1073, "Name": "Pan American (PAN-AM)", "color": "#f4878f", "length": "7,050 km", "rfs": "February 1999", "owners": "AT&T,  Telefonica del Peru,  Softbank Telecom,  Telecom Italia Sparkle,  Sprint,  CANTV,  Tata Communications,  Telefónica de Argentina (Speedy),  Telstra,  Verizon,  Entel Chile,  Telecom Argentina,  Telconet,  Instituto Costarricense de Electricidad,  Corporacion Nacional de Telecommunicaciones,  C&W Networks,  Embratel", "url": null, "Symbol": 16, "year": 1999}, "geometry": {"type": "MultiLineString", "coordinates": [[[-70.3067609996013, -18.4735439999527], [-79.0379069999451, -19.2596640003929], [-80.0448890001428, -14.4114659996128], [-76.874285000027, -12.2784199997457], [-80.6169580003349, -11.6075260003594], [-82.5157464523278, -2.13111741336211]], [[-80.914418999878, -2.27290300011698], [-82.5157464523278, -2.13111741336211]], [[-82.5157464523278, -2.13111741336211], [-82.515784999935, -2.13111400032968]], [[-82.5157464523278, -2.13111741336211], [-82.8020160002112, -0.690866999671831], [-78.1135420000091, 6.71594500000451], [-79.5366859999597, 8.96478600030911]], [[-70.0105699995793, 15.0327259999653], [-75.0441599999196, 12.642935000104], [-74.7797560003122, 10.9404500001076], [-75.9899109995852, 12.2192219997086], [-79.2286780001416, 10.6649520002866], [-79.8939119997969, 9.3562130004407]], [[-70.0105699995793, 15.0327259999653], [-69.8103740002876, 12.5061599995828], [-69.8785870000587, 12.4146180003456], [-69.9257060001783, 12.332298999803], [-70.1076890002409, 12.2742880003586], [-70.3896709997659, 12.0802199998632], [-70.2043190002826, 11.7087810001824]], [[-64.8824969996757, 17.4398419998222], [-70.0105699995793, 15.0327259999653]], [[-64.8824969996757, 17.4398419998222], [-64.972927000103, 17.6300820001108], [-64.972927000103, 17.773909999653], [-64.8192650000516, 17.773909999653]], [[-64.8824969996757, 17.4398419998222], [-64.2690209999802, 17.7257319998981], [-64.2690209999802, 18.0878619999032], [-64.9044210004289, 18.324511999925]]]}}, {"type": "Feature", "properties": {"OBJECTID": 21, "cable_id": 1076, "Name": "GlobeNet", "color": "#b2703f", "length": "23,500 km", "rfs": "October 2000", "owners": "BTG Pactual", "url": "http://www.globenet.net", "Symbol": 4, "year": 2000}, "geometry": {"type": "MultiLineString", "coordinates": [[[-38.5429650003327, -3.71873699985809], [-33.6743650001183, -1.33539100033742], [-30.6375019998392, -3.77788699977685], [-30.6375019998392, -12.2385300001307], [-39.5799270002251, -24.3038019995969], [-43.2095630003604, -22.9034840000527], [-40.3219190001112, -23.7263950003345], [-31.6244149996841, -11.9553140004318], [-31.6244149996841, -4.2354560000087], [-33.9020499995679, -2.40472699979239], [-38.5429650003327, -3.71873699985809]], [[-38.5429650003327, -3.71873699985809], [-36.0482400000564, 1.41775900000208], [-53.1625350001834, 19.1003449996831], [-64.7734149996282, 32.3196619999352], [-74.3378129995904, 39.6038849997107], [-72.4661830000703, 33.5999050002455], [-80.0889319998463, 26.3505859996049], [-74.1805369998959, 25.2277490002037], [-68.0728270000125, 19.0650910001277], [-68.1910880000062, 15.661520999633]], [[-68.1910880000062, 15.661520999633], [-74.6205759998134, 12.6131080001845], [-74.7797560003122, 10.9404500001076]], [[-68.1910880000062, 15.661520999633], [-66.9604249999894, 10.5995900002524], [-64.4791769999159, 11.519763999801], [-51.0864129998664, 11.519763999801], [-38.6851029995927, 0.192611999584809], [-38.5429650003327, -3.71873699985809]]]}}, {"type": "Feature", "properties": {"OBJECTID": 22, "cable_id": 1078, "Name": "ARCOS", "color": "#4fc1af", "length": "8,600 km", "rfs": "December 2001", "owners": "C&W Networks,  Axtel,  CANTV,  Codetel,  Hondutel,  Belize Telemedia,  Enitel,  AT&T,  Alestra,  Verizon,  RACSA,  United Telecommunication Services (UTS),  Telecarrier,  Tricom USA,  Telecomunicaciones Ultramarinas de Puerto Rico,  Internexa,  Orbinet Overseas,  Telepuerto San Isidro,  Bahamas Telecommunications Company,  Instituto Costarricense de Electricidad", "url": "http://www.cwnetworks.com/", "Symbol": 10, "year": 2001}, "geometry": {"type": "LineString", "coordinates": [[-83.776820000182, 15.2613149998805], [-83.7553840002238, 16.249482000255], [-84.9710080004386, 16.249482000255], [-85.9546990002776, 15.9152449999891], [-86.5688589996883, 16.2345749996963], [-86.9386339996157, 16.2345749996963], [-87.9461530001138, 15.8449860003078], [-87.9484960004109, 16.2345749996963], [-88.5971289997667, 15.7272380003999], [-88.120762000402, 17.0748229996178], [-88.1821880000295, 17.4963850002291], [-87.700791000114, 17.7236859996559], [-87.0159769998275, 19.5521710002141], [-87.4635360000076, 20.2127360000112], [-86.7697369999437, 20.1974309995965], [-86.486045999608, 20.9278030003219], [-86.7675889996403, 21.0957250000442], [-86.5125110002922, 21.8024100000005], [-83.6677380001345, 24.4216470003416], [-81.1451320000632, 24.4216470003416], [-80.1573890000148, 24.7957030003934], [-80.1622220000238, 25.9332070000476], [-77.3402029999245, 25.067215000301], [-75.5258980003169, 24.4033289996004], [-74.6160840002863, 23.7394200000797], [-74.4872750001928, 22.5433330001322], [-74.3657910003683, 22.4711590002033], [-74.1950390002958, 22.6298919996597], [-74.0708210003619, 22.653055999777], [-73.9741899995969, 22.7444090002604], [-73.6731649997411, 22.7872720000743], [-72.9153530002534, 22.6113230002057], [-72.1194059997003, 21.8510919996015], [-71.7246799999057, 21.6767759999024], [-70.6911840004167, 19.7994360001768], [-70.1568100001757, 20.1261100004199], [-68.8204340004304, 19.2809300003843], [-68.4381589999183, 18.6213720003449], [-67.5220459996407, 19.2896869999296], [-66.0168710001327, 18.4418350000408], [-67.5693110002485, 18.959558999603], [-69.8122790000185, 13.5909620000982], [-68.892650000007, 12.0904369996532], [-70.1281960002616, 12.3550040001552], [-70.5138889996998, 12.1126860001886], [-70.2043190002826, 11.7087810001824], [-70.393332999988, 11.7087810001824], [-71.7601289996441, 13.2471939996127], [-73.0085649995723, 12.5791800001643], [-72.9527059998977, 11.4831119997801], [-73.8619829996278, 12.12156500013], [-75.7179390000346, 11.1237180002199], [-75.5057319998798, 10.3868030001093], [-79.4446450004277, 10.0411009997349], [-79.7535310001297, 9.43762499961785], [-79.7534829995508, 10.0635059997383], [-82.5422499997208, 10.0635059997383], [-83.0376600003146, 9.98859399964471], [-83.0296520001553, 11.452102999576], [-83.7715460001321, 11.9916820000908], [-83.0296520001553, 12.4094679996665], [-83.0296520001553, 13.6153559998602], [-83.3964489995759, 14.0161099996755], [-83.0296520001553, 14.2530479999527], [-83.0296520001553, 15.3080389999333], [-83.776820000182, 15.2613149998805]]}}, {"type": "Feature", "properties": {"OBJECTID": 25, "cable_id": 1083, "Name": "South America-1 (SAm-1)", "color": "#8dc851", "length": "25,000 km", "rfs": "March 2001", "owners": "Telefonica", "url": "http://www.globalsolutions.telefonica.com", "Symbol": 11, "year": 2001}, "geometry": {"type": "MultiLineString", "coordinates": [[[-56.6954419996445, -36.4709590002291], [-50.4401239997343, -39.4332769999098], [-40.8318300003817, -28.093471999955], [-46.3280670002097, -23.9618450000981], [-44.5175210000102, -24.7955529999293]], [[-44.5175210000102, -24.7955529999293], [-43.2095630003604, -22.9034840000527]], [[-44.5175210000102, -24.7955529999293], [-39.2572220000135, -26.9674649999876], [-32.0476570003819, -17.4733140003439]], [[-32.0476570003819, -17.4733140003439], [-28.6636750003244, -12.8188060003455], [-28.6636750003244, -3.48774899975417], [-33.1863280003723, 0.151498000289988], [-38.5429650003327, -3.71873699985809], [-36.7112769999028, 1.10972899977689], [-54.9990080000433, 19.1003449996831], [-65.2007580000408, 19.1003449996831], [-66.1066660003502, 18.4661050003949]], [[-38.5044879998589, -12.9699729997316], [-32.0476570003819, -17.4733140003439]], [[-81.0537750002464, -4.15383899991571], [-81.6705220003517, -2.42629000042613]], [[-84.3326300003814, -2.96602099973521], [-83.965295999762, -4.7392759999062], [-82.3329730003922, -12.9199119999849], [-76.874285000027, -12.2784199997457], [-82.1422499998763, -13.8532079999192], [-80.8492339999441, -20.0722140001575], [-70.3067609996013, -18.4735439999527], [-80.658559999832, -20.9703300001623], [-77.8143730003786, -33.633922999999], [-71.6204319996921, -33.0455399998903]], [[-80.914418999878, -2.27290300011698], [-84.3326300003814, -2.96602099973521]], [[-90.8222249998911, 13.9348009996769], [-92.9320860002092, 10.0681210003311], [-86.2321399998717, 6.5790780002064], [-84.3326300003814, -2.96602099973521]], [[-66.1066660003502, 18.4661050003949], [-67.4417730003993, 18.7684529995962], [-74.1470899999728, 12.4169070001234], [-74.7797560003122, 10.9404500001076]], [[-66.1066660003502, 18.4661050003949], [-74.3634470002463, 28.3747869999479], [-80.0889319998463, 26.3505859996049], [-79.9103669996082, 24.7022279999479], [-81.107582999702, 24.2484039996137], [-83.5894659999851, 24.2484039996137], [-86.2969840002221, 21.7421010001018], [-86.2969840002221, 20.3688159999396], [-87.4913189998935, 17.7512179996799], [-88.5971289997667, 15.7272380003999]]]}}, {"type": "Feature", "properties": {"OBJECTID": 26, "cable_id": 1084, "Name": "South American Crossing (SAC)/Latin American Nautilus (LAN)", "color": "#0982c5", "length": "20,000 km", "rfs": "September 2000", "owners": "Level 3,  Telecom Italia Sparkle", "url": "http://www.level3.com", "Symbol": 13, "year": 2000}, "geometry": {"type": "MultiLineString", "coordinates": [[[-56.6954419996445, -36.4709590002291], [-50.9532589996606, -38.6862219997557], [-41.9062439996526, -27.9473480003072], [-46.3280670002097, -23.9618450000981], [-44.5952070003537, -24.2611629998334], [-43.2095630003604, -22.9034840000527], [-38.8743609996955, -24.9367859998437], [-29.6505880001693, -12.5214430001709], [-29.6505880001693, -3.32017400039825], [-33.4466789999454, -0.265491999891309], [-38.5429650003327, -3.71873699985809], [-37.9448699998476, 0.536647000445039], [-56.2396319996308, 17.4465490000178], [-63.4723420000313, 17.8312789997142], [-64.6030049998625, 17.9812610001115], [-64.8192650000516, 17.773909999653], [-64.9914320003084, 17.8312789997142], [-69.6164780001695, 15.6009560001095]], [[-71.6204319996921, -33.0455399998903], [-76.9563649999883, -33.074022999721], [-81.0936179996025, -14.1325560004073], [-76.874285000027, -12.2784199997457], [-81.4749659998268, -12.2645830002269], [-83.8325809999474, -0.493026000132961], [-81.0214020000259, 3.9511920001454], [-79.9154449998396, 5.6945380001836]], [[-77.0403010001749, 3.88367499996717], [-79.9154449998396, 5.6945380001836]], [[-79.9154449998396, 5.6945380001836], [-78.9337569996407, 7.2376369996781], [-79.5465489996211, 8.93411000012268]], [[-67.0339109999855, 10.6081330004095], [-69.6164780001695, 15.6009560001095]], [[-69.6164780001695, 15.6009560001095], [-79.3766760001558, 10.8172169996795], [-79.9002600004477, 9.35380399992786]]]}}, {"type": "Feature", "properties": {"OBJECTID": 35, "cable_id": 1148, "Name": "Americas-II", "color": "#f89635", "length": "8,373 km", "rfs": "August 2000", "owners": "Embratel,  AT&T,  Verizon,  Sprint,  CANTV,  Tata Communications,  Level 3,  Centennial of Puerto Rico,  Corporacion Nacional de Telecommunicaciones,  Telecom Argentina,  Orange,  Portugal Telecom,  C&W Networks,  Telecom Italia Sparkle,  Entel Chile", "url": null, "Symbol": 5, "year": 2000}, "geometry": {"type": "MultiLineString", "coordinates": [[[-38.5429650003327, -3.71873699985809], [-39.6719679997571, -0.266176000329203], [-50.4076540003277, 7.61675199978331]], [[-52.3209339999239, 4.94154900021343], [-50.4076540003277, 7.61675199978331]], [[-50.4076540003277, 7.61675199978331], [-58.3103829998136, 13.368457000129]], [[-66.8782959996243, 10.6065020003109], [-65.21404000025, 11.4497109999872]], [[-68.892650000007, 12.0904369996532], [-65.21404000025, 11.4497109999872]], [[-58.3103829998136, 13.368457000129], [-60.2932910002635, 12.4430380002108], [-61.5166790002402, 10.6497890001595]], [[-58.3103829998136, 13.368457000129], [-60.1836719999156, 14.7139910002377]], [[-61.0941699996614, 14.6154539995711], [-61.2562790002632, 14.7206029997711], [-61.2562790002632, 14.9310309999373], [-60.6762989999963, 15.0664879996168]], [[-60.1836719999156, 14.7139910002377], [-60.7862110002472, 13.7244790001835], [-65.21404000025, 11.4497109999872]], [[-60.1836719999156, 14.7139910002377], [-60.6762989999963, 15.0664879996168]], [[-60.6762989999963, 15.0664879996168], [-61.0998820002776, 15.724136000414], [-62.1809360002773, 15.724136000414], [-64.4949000003315, 17.9294230000912], [-64.8166280000266, 17.773909999653], [-66.3662849996293, 20.1521489999928]], [[-66.1066660003502, 18.4661050003949], [-66.3662849996293, 20.1521489999928]], [[-80.1601719996297, 26.010552999829], [-72.8478230003726, 29.6716029998218], [-66.3662849996293, 20.1521489999928]]]}}, {"type": "Feature", "properties": {"OBJECTID": 62, "cable_id": 1227, "Name": "Antillas 1", "color": "#6c70b5", "length": "650 km", "rfs": "June 1997", "owners": "AT&T,  Verizon,  Sprint,  Tata Communications,  Orange,  C&W Networks,  Telecom Italia Sparkle,  Embratel", "url": null, "Symbol": 7, "year": 1997}, "geometry": {"type": "LineString", "coordinates": [[-69.9832749995901, 18.5002819998489], [-69.3351309999558, 17.8808219999626], [-68.6869859995984, 17.8808219999626], [-68.1750730004109, 18.3703010002134], [-68.4381589999183, 18.6213720003449], [-67.5417240001812, 19.1197230000364], [-66.0827890001856, 18.4535999999858], [-66.0168710001327, 18.4418350000408]]}}, {"type": "Feature", "properties": {"OBJECTID": 63, "cable_id": 1229, "Name": "Taino-Carib", "color": "#b2703f", "length": "186 km", "rfs": "December 1992", "owners": "AT&T,  Embratel,  Telecom Argentina,  Orange,  CANTV,  C&W Networks,  Telecom Italia Sparkle", "url": null, "Symbol": 4, "year": 1992}, "geometry": {"type": "LineString", "coordinates": [[-66.0827890001856, 18.4535999999858], [-65.9986089996015, 18.692522999997], [-66.0168710001327, 18.4418350000408], [-65.4657969998579, 18.5796299998326], [-64.9370869996541, 18.3729890001681]]}}, {"type": "Feature", "properties": {"OBJECTID": 65, "cable_id": 1232, "Name": "Bahamas Internet Cable System (BICS)", "color": "#ba5aa3", "length": "1,100 km", "rfs": "July 2001", "owners": "Caribbean Crossings", "url": "http://www.caribbeancrossings.com", "Symbol": 15, "year": 2001}, "geometry": {"type": "MultiLineString", "coordinates": [[[-78.7367349997761, 26.516995999796], [-80.0676909998817, 26.3783230002651]], [[-78.7367349997761, 26.516995999796], [-79.4358559995705, 26.3034960001294], [-80.0889319998463, 26.3505859996049]], [[-78.7367349997761, 26.516995999796], [-77.7123710003776, 25.7941020002041], [-77.4529959996995, 25.0684530002429], [-76.9026060000382, 25.2317249996262], [-76.7876640001349, 25.407832999849], [-77.1836109999451, 25.5400760003186], [-77.3995289998274, 26.0252969997797], [-77.3154959995564, 26.033019000322], [-77.2014340000852, 26.1438800001087], [-77.1936209999196, 26.2714500000867], [-77.1342459996128, 26.5583200003427], [-77.1795589997358, 26.5876669996529], [-77.2451839998857, 26.5960500002051], [-77.3061209997917, 26.628180000042], [-77.3342459999843, 26.691366999616], [-77.5092460000846, 26.8571080001333], [-77.5889330004185, 26.8918640000649], [-77.6936209999498, 26.8932579997338], [-77.8219410003218, 26.9125039996819], [-77.8800460002091, 26.6257360002706], [-78.2458660000115, 26.6167439999756], [-78.304558000428, 26.6575089997429], [-78.4951830001363, 26.6365609997808], [-78.6490400001814, 26.5611160003514], [-78.7367349997761, 26.516995999796]]]}}, {"type": "Feature", "properties": {"OBJECTID": 70, "cable_id": 1245, "Name": "Saint Maarten Puerto Rico Network One (SMPR-1)", "color": "#895c3c", "length": "374 km", "rfs": "December 2004", "owners": "TelEm Group", "url": null, "Symbol": 8, "year": 2004}, "geometry": {"type": "LineString", "coordinates": [[-66.0168710001327, 18.4418350000408], [-65.5969500000734, 19.307199000162], [-64.1242940003758, 19.2391680004234], [-63.0736600002869, 18.0310410004184]]}}, {"type": "Feature", "properties": {"OBJECTID": 87, "cable_id": 1289, "Name": "Alonso de Ojeda", "color": "#8dc851", "length": "128 km", "rfs": "1999", "owners": "n.a.", "url": null, "Symbol": 11, "year": 1999}, "geometry": {"type": "LineString", "coordinates": [[-69.8785870000587, 12.4146180003456], [-69.6936260003876, 12.0904369996532], [-68.892650000007, 12.0904369996532]]}}, {"type": "Feature", "properties": {"OBJECTID": 88, "cable_id": 1290, "Name": "Eastern Caribbean Fiber System (ECFS)", "color": "#f04230", "length": "1,730 km", "rfs": "September 1995", "owners": "Orange,  AT&T,  BT,  Verizon,  Sprint,  CANTV,  Guyana Telephone and Telegraph (GT&T),  Codetel,  C&W Networks", "url": null, "Symbol": 6, "year": 1995}, "geometry": {"type": "LineString", "coordinates": [[-61.6508100000642, 10.68625699976], [-61.54124000012, 11.3426830001842], [-61.54124000012, 12.2917500004061], [-61.7152629997039, 12.2917500004061], [-61.7108680002612, 12.18801000025], [-61.7692180003709, 12.2917500004061], [-61.2546680002602, 13.1878709998453], [-61.2546680002602, 13.0688009996619], [-59.6074030002745, 13.0844960000029], [-60.8987599996247, 14.1262760003827], [-61.0068159996502, 14.1262760003827], [-61.0068159996502, 13.9945059996077], [-61.1626750004089, 14.4977750001513], [-61.0941699996614, 14.6154539995711], [-61.3706830000412, 14.6745059998701], [-61.3706830000412, 15.2520819998584], [-61.2626749996963, 15.1995969996923], [-61.1546189996707, 15.4093640003861], [-61.5330360001422, 16.2413249999847], [-61.8579389999876, 17.0514839996074], [-62.0740030003581, 17.0514839996074], [-62.3237099995719, 16.8108249997679], [-62.2156529997215, 16.7068439995897], [-62.3237099995719, 16.7068439995897], [-62.7297640003394, 17.090879000328], [-62.7297640003394, 17.2986390000036], [-62.7297640003394, 17.4023840001097], [-63.0736600002869, 18.0310410004184], [-63.0571560000717, 18.2176840002003], [-63.14900199961, 18.3160750004141], [-64.1523709999895, 18.3445350000731], [-64.5008079998679, 18.3160750004141], [-64.5971459998316, 18.4144110003002]]}}, {"type": "Feature", "properties": {"OBJECTID": 119, "cable_id": 1361, "Name": "Fibralink", "color": "#895c3c", "length": "1,000 km", "rfs": "March 2006", "owners": "C&W Networks", "url": "http://www.columbus-networks.com", "Symbol": 8, "year": 2006}, "geometry": {"type": "MultiLineString", "coordinates": [[[-76.6666199996281, 17.9497699996676], [-75.8771179998102, 17.4506489995743], [-74.8742380000505, 18.2162919998361], [-74.007343999617, 19.6957579997455]], [[-74.007343999617, 19.6957579997455], [-72.8026569996644, 18.864771999661], [-72.608662999637, 18.8650500002037]], [[-74.007343999617, 19.6957579997455], [-73.6409380000087, 20.3172649996066], [-71.3536839999627, 20.3131439997012], [-70.6911840004167, 19.7994360001768]]]}}, {"type": "Feature", "properties": {"OBJECTID": 136, "cable_id": 1494, "Name": "Amerigo Vespucci", "color": "#f4878f", "length": "85 km", "rfs": "1999", "owners": "Antelecom", "url": null, "Symbol": 16, "year": 1999}, "geometry": {"type": "LineString", "coordinates": [[-68.2766350001958, 12.1510669996205], [-68.7853260002756, 11.9714299996501], [-68.8920159996222, 11.9878610000269], [-68.892650000007, 12.0904369996532]]}}, {"type": "Feature", "properties": {"OBJECTID": 138, "cable_id": 1510, "Name": "Bahamas Domestic Submarine Network (BDSNi)", "color": "#0982c5", "length": "2,817 km", "rfs": "2006", "owners": "Bahamas Telecommunications Company,  Teleco", "url": "http://www.btcbahamas.com", "Symbol": 13, "year": 2006}, "geometry": {"type": "MultiLineString", "coordinates": [[[-73.682978999897, 20.950513000016], [-73.682978999897, 18.9075529999134], [-72.8343469999947, 18.6119319999512], [-72.5102750001775, 18.6119319999512], [-72.3431359999233, 18.5428770003277]], [[-73.682978999897, 20.950513000016], [-75.7333679998239, 22.1832619999726], [-75.3752630002778, 23.7332520002055], [-74.8404980002245, 23.6522330003161]], [[-73.682978999897, 20.950513000016], [-73.0641320000671, 22.4017460003669], [-73.6787800002728, 22.7658420000276], [-73.9654009996381, 22.7363030001899], [-74.0620800000836, 22.6449440000246], [-74.1950390002958, 22.6298919996597], [-74.3638380000585, 22.4976869998804], [-74.4501660000477, 22.5591159998771], [-74.5257030002628, 24.0526319996063]], [[-74.8404980002245, 23.6522330003161], [-75.3858590000582, 23.7697210004098], [-75.78014600036, 23.5165519996592], [-76.0029969999757, 24.923564000004], [-76.1278989996249, 25.1481269996892], [-76.2406429998944, 25.1962069997348]], [[-74.5257030002628, 24.0526319996063], [-74.9661809996732, 23.0983429996082], [-74.8404980002245, 23.6522330003161]], [[-74.5257030002628, 24.0526319996063], [-75.5258980003169, 24.4033289996004], [-75.7599310004174, 24.5442949997593], [-76.1326360002727, 25.1962069997348], [-76.2406429998944, 25.1962069997348]], [[-77.3402029999245, 25.067215000301], [-77.1868830001798, 25.0451869996097], [-77.1868830001798, 24.9467649998579], [-77.8445969995725, 24.6897170003867]], [[-77.3402029999245, 25.067215000301], [-77.4402030001102, 25.2225370002255], [-78.5212570001099, 26.3160140002604], [-78.7367349997761, 26.516995999796], [-77.3995289998274, 26.0252969997797], [-77.3995289998274, 25.8298819999799], [-76.8311700004363, 25.7120380002631], [-76.2406429998944, 25.2944289997462], [-76.2406429998944, 25.1962069997348]], [[-76.2406429998944, 25.1962069997348], [-77.3402029999245, 25.067215000301]]]}}, {"type": "Feature", "properties": {"OBJECTID": 151, "cable_id": 1529, "Name": "ALBA-1", "color": "#f04230", "length": "1,860 km", "rfs": "August 2012", "owners": "Transbit,  Telecom Venezuela", "url": null, "Symbol": 6, "year": 2012}, "geometry": {"type": "MultiLineString", "coordinates": [[[-75.7123720000817, 19.9637299999459], [-74.4654490002472, 15.3820600004034], [-68.8606190000933, 11.7972189998866], [-66.8896239996988, 10.6035260000083]], [[-75.828924999988, 20.0293439999903], [-77.1032399998961, 18.3986590003314]]]}}, {"type": "Feature", "properties": {"OBJECTID": 153, "cable_id": 1532, "Name": "ECLink", "color": "#6c70b5", "length": "987 km", "rfs": "October 2007", "owners": "C&W Networks", "url": "http://www.columbus-networks.com", "Symbol": 7, "year": 2007}, "geometry": {"type": "LineString", "coordinates": [[-61.6492960001456, 10.6876960000361], [-61.6492960001456, 11.3426830001842], [-64.4320090002909, 11.3426830001842], [-65.3518809999766, 11.0235680000857], [-68.9240959999398, 11.9745829996717], [-68.892650000007, 12.0904369996532]]}}, {"type": "Feature", "properties": {"OBJECTID": 165, "cable_id": 1554, "Name": "Colombia-Florida Subsea Fiber (CFX-1)", "color": "#ffd633", "length": "2,400 km", "rfs": "August 2008", "owners": "C&W Networks", "url": "http://www.columbus-networks.com", "Symbol": 18, "year": 2008}, "geometry": {"type": "MultiLineString", "coordinates": [[[-74.7460640001668, 17.4921009997633], [-75.9343449998135, 17.918366000133], [-76.1843440000037, 17.918366000133]], [[-80.0889319998463, 26.3505859996049], [-77.7009450003938, 25.0518219997437], [-74.0855670002609, 20.7728419998545], [-74.6540720001403, 18.027419000112], [-75.6846379997014, 11.9431510000337], [-75.5057319998798, 10.3868030001093]]]}}, {"type": "Feature", "properties": {"OBJECTID": 196, "cable_id": 1612, "Name": "Suriname-Guyana Submarine Cable System (SG-SCS)", "color": "#c4b830", "length": "1,249 km", "rfs": "July 2010", "owners": "Guyana Telephone and Telegraph (GT&T),  Telesur", "url": null, "Symbol": 29, "year": 2010}, "geometry": {"type": "MultiLineString", "coordinates": [[[-56.3753740003561, 5.88661900043509], [-55.6099449996232, 7.38205900000687], [-57.2794749999457, 8.32294599975272]], [[-58.1548650004351, 6.80429100019019], [-57.2794749999457, 8.32294599975272]], [[-57.2794749999457, 8.32294599975272], [-60.5565230002591, 10.1631060003334], [-60.7144340001634, 10.8307420000048], [-60.9224409999708, 10.9611600001595], [-61.5426560001293, 10.9611600001595], [-61.6508100000642, 10.68625699976]]]}}, {"type": "Feature", "properties": {"OBJECTID": 200, "cable_id": 1619, "Name": "Southern Caribbean Fiber", "color": "#38bced", "length": "n.a.", "rfs": "September 2006", "owners": "Digicel", "url": "http://www.southern-caribbean.com", "Symbol": 9, "year": 2006}, "geometry": {"type": "MultiLineString", "coordinates": [[[-60.9866009997076, 14.0324059996003], [-61.0947069999619, 14.0324059996003], [-61.3507610000016, 13.5059919997983], [-61.3628220001951, 13.2409200001663], [-61.2546680002602, 13.1878709998453], [-61.3615519997756, 13.136236000263], [-61.8729779997896, 12.2943259998092], [-61.7108680002612, 12.18801000025], [-61.873074999874, 12.0815569996141], [-61.6492960001456, 10.6876960000361]], [[-61.2840620001491, 14.2223799998994], [-61.2840127778614, 14.2223799998994]], [[-61.2840127778614, 14.2223799998994], [-60.9866009997076, 14.0324059996003]], [[-61.2840127778614, 14.2223799998994], [-61.1024988232429, 14.2223799998994]], [[-61.1024988232429, 14.2223799998994], [-60.9866009997076, 14.0324059996003]], [[-61.1024988232429, 14.2223799998994], [-60.7434370002399, 14.2223799998994], [-59.6074030002745, 13.0844960000029]], [[-61.1024988232429, 14.2223799998994], [-61.2706829998555, 14.4977750001513], [-61.0941699996614, 14.6154539995711], [-61.4184370003705, 14.6154539995711], [-61.5006629999217, 15.202988999647], [-61.3925089999868, 15.3080389999333], [-61.5006629999217, 15.3080389999333], [-61.820048000218, 15.8116320002418], [-61.9547649998479, 16.5345710004018], [-61.9808389998215, 16.9484760003938], [-61.8579389999876, 17.0514839996074]], [[-63.0732700002995, 17.0196440003258], [-61.9555459996475, 15.8168939996339], [-61.2841600000583, 14.2224739998648], [-61.2840127778614, 14.2223799998994]], [[-62.7297640003394, 17.2986390000036], [-63.0732700002995, 17.0196440003258]], [[-64.8192650000516, 17.773909999653], [-64.4949000003315, 17.8775689999624], [-63.5501249995609, 17.6525109999378], [-63.2386989999183, 17.1970739996867], [-63.0732700002995, 17.0196440003258]]]}}, {"type": "Feature", "properties": {"OBJECTID": 208, "cable_id": 1634, "Name": "Caribbean-Bermuda U.S. (CBUS)", "color": "#6c70b5", "length": "1,600 km", "rfs": "October 2009", "owners": "C&W Networks", "url": "http://www.cwnetworks.com/", "Symbol": 7, "year": 2009}, "geometry": {"type": "LineString", "coordinates": [[-64.8016379997301, 32.2586539996346], [-64.5971459998316, 18.4144110003002]]}}, {"type": "Feature", "properties": {"OBJECTID": 211, "cable_id": 1643, "Name": "Columbus-II b", "color": "#895c3c", "length": "2,068 km", "rfs": "December 1994", "owners": "n.a.", "url": null, "Symbol": 8, "year": 1994}, "geometry": {"type": "LineString", "coordinates": [[-64.9370869996541, 18.3729890001681], [-75.8406439998748, 27.3276290002679], [-78.8024090003299, 27.3276290002679], [-80.0533359997949, 26.7152710001722]]}}, {"type": "Feature", "properties": {"OBJECTID": 212, "cable_id": 1645, "Name": "Americas-I North", "color": "#f04230", "length": "2,012 km", "rfs": "September 1994", "owners": "n.a.", "url": null, "Symbol": 6, "year": 1994}, "geometry": {"type": "LineString", "coordinates": [[-64.9370869996541, 18.3729890001681], [-74.8807809997967, 27.6387359996426], [-80.3942540001339, 27.6387359996426]]}}, {"type": "Feature", "properties": {"OBJECTID": 221, "cable_id": 1671, "Name": "East-West", "color": "#ca1c6e", "length": "1,750 km", "rfs": "February 2011", "owners": "C&W Networks", "url": "http://www.cwc.com", "Symbol": 22, "year": 2011}, "geometry": {"type": "MultiLineString", "coordinates": [[[-70.1883530001928, 16.9820080000875], [-67.2531499996079, 16.9733220001723], [-64.5971459998316, 18.4144110003002]], [[-76.71676599976, 17.9499549998594], [-76.0119320004228, 16.9733220001723], [-70.1883530001928, 16.9820080000875]], [[-70.1617899995994, 18.6993690001115], [-70.1883530001928, 16.9820080000875]]]}}, {"type": "Feature", "properties": {"OBJECTID": 232, "cable_id": 1686, "Name": "America Movil Submarine Cable System-1 (AMX-1)", "color": "#565da6", "length": "17,800 km", "rfs": "2014", "owners": "América Móvil", "url": "http://www.americamovil.com", "Symbol": 17, "year": 2014}, "geometry": {"type": "MultiLineString", "coordinates": [[[-43.2095630003604, -22.9034840000527], [-41.6144470001467, -23.1545009997653], [-38.5910610000704, -19.3090709997497], [-38.0086389997722, -17.2808579998435], [-35.7998030003638, -14.3493159999403]], [[-35.7998030003638, -14.3493159999403], [-33.3208490001836, -11.0125739996166], [-33.3208490001836, -5.02544000010993], [-34.3785149997402, -4.17662999999285], [-38.5429650003327, -3.71873699985809], [-39.1838819996073, -0.038735999785681], [-52.0240099997829, 10.5809679998418], [-59.7271299996079, 19.6872990001405], [-64.9092418363506, 21.6289403174345]], [[-38.5044879998589, -12.9699729997316], [-35.7998030003638, -14.3493159999403]], [[-75.5057319998798, 10.3868030001093], [-80.5191070002775, 15.7200929996815], [-82.2664689996351, 16.8477480001025], [-85.2306913514313, 19.8886424108693]], [[-88.5971289997667, 15.7272380003999], [-85.2306913514313, 19.8886424108693]], [[-70.6911840004167, 19.7994360001768], [-70.6911840004167, 21.3255109998985]], [[-70.6835670000698, 19.8033870003551], [-68.7645740000325, 20.2704600002496], [-66.6905039997595, 19.436453999923], [-66.1066660003502, 18.4661050003949], [-64.9092418363506, 21.6289403174345]], [[-85.2306913514313, 19.8886424108693], [-85.2306269997176, 19.8887209999994]], [[-85.2306913514313, 19.8886424108693], [-85.8924430004467, 20.5599449999307], [-85.8924430004467, 21.1018289996501]], [[-86.7675889996403, 21.0957250000442], [-85.8924430004467, 21.1018289996501]], [[-85.8924430004467, 21.1018289996501], [-85.8924430004467, 21.6085160001424], [-83.4063120001356, 23.913976999677], [-81.0059230000078, 23.913976999677], [-79.3898599995573, 24.5278599999637], [-80.2264310001644, 25.7890019999075]], [[-70.6911840004167, 21.3255109998985], [-72.6458699996914, 21.0104200001074], [-73.9446979997988, 20.5037010001636], [-75.0128610002999, 18.3172810004258], [-74.7797560003122, 10.9404500001076]], [[-64.9092418363506, 21.6289403174345], [-69.2178449999305, 23.2237729996803]], [[-64.909205999859, 21.6290340000385], [-64.9092418363506, 21.6289403174345]], [[-69.2178449999305, 23.2237729996803], [-70.6911840004167, 21.3255109998985]], [[-69.2178449999305, 23.2237729996803], [-73.3343460002, 28.715438999836], [-81.6556299999645, 30.3320980002663]]]}}, {"type": "Feature", "properties": {"OBJECTID": 253, "cable_id": 1727, "Name": "Pacific Caribbean Cable System (PCCS)", "color": "#565da6", "length": "6,000 km", "rfs": "September 2015", "owners": "C&W Networks,  Telconet,  Telefonica,  Setar,  United Telecommunication Services (UTS)", "url": null, "Symbol": 17, "year": 2015}, "geometry": {"type": "MultiLineString", "coordinates": [[[-79.5666170001489, 8.95031600006586], [-78.5236010002319, 6.97676700002284], [-82.7279920000897, 0.338312999706308], [-80.7161280003172, -0.949727000304055]], [[-76.1311220003541, 11.6582870001059], [-78.6559739997398, 10.4463519998578], [-79.7534829995508, 9.43772099957642]], [[-76.1311220003541, 11.6582870001059], [-75.5057319998798, 10.3868030001093]], [[-69.0205800003916, 12.2348749997758], [-69.0205800003916, 12.4790819999441], [-70.0499249999371, 12.6169200001682], [-70.8275609995551, 14.186026000297]], [[-70.8275609995551, 14.186026000297], [-76.1311220003541, 11.6582870001059]], [[-64.5971459998316, 18.4144110003002], [-64.108621000189, 18.6706909998818], [-63.7383569996417, 18.3173730002825], [-63.7467559996132, 17.5159430000039], [-70.8275609995551, 14.186026000297]], [[-66.1066660003502, 18.4661050003949], [-65.567653000269, 18.7252669996499], [-64.7233170000752, 18.5752789998728], [-64.5971459998316, 18.4144110003002]], [[-81.6556299999645, 30.3320980002663], [-73.4829790004239, 28.5746280001012], [-69.1445060002475, 22.7723259998792], [-64.9537370003574, 19.4741150000106], [-64.3172630002061, 18.8693000003487], [-64.5971459998316, 18.4144110003002]]]}}, {"type": "Feature", "properties": {"OBJECTID": 274, "cable_id": 1756, "Name": "St. Thomas-St. Croix System", "color": "#9ea0a2", "length": "183 km", "rfs": "July 2013", "owners": "Virgin Islands Next Generation Networks,  Inc.", "url": "http://www.vingn.com", "Symbol": 0, "year": 2013}, "geometry": {"type": "LineString", "coordinates": [[-64.9752700004001, 18.3424029997068], [-64.9480239999164, 18.3357279997528], [-64.9438250002922, 18.3282199999531], [-64.9577900003917, 18.3129230003937], [-64.8972919999785, 18.2926179996697], [-64.8431420002162, 18.3224719996621], [-64.6845480004216, 17.782279999697], [-64.7032000000419, 17.7466609997342], [-64.7032000000419, 17.782279999697], [-64.7217549995777, 17.8013419998369], [-64.9000749995934, 17.8013419998369], [-64.9000749995934, 17.7480559999383], [-64.881472000377, 17.7124300001127], [-64.9186300000275, 17.7480559999383], [-64.9938740003397, 18.324604000201], [-64.9752700004001, 18.3424029997068]]}}, {"type": "Feature", "properties": {"OBJECTID": 284, "cable_id": 1769, "Name": "Perseid", "color": "#9ea0a2", "length": "115 km", "rfs": "Q2 2016", "owners": "LinkBermuda", "url": "http://www.linkbermuda.com/", "Symbol": 0, "year": 2016}, "geometry": {"type": "LineString", "coordinates": [[-64.8192650000516, 17.773909999653], [-64.4928979996179, 18.0666959999461], [-64.5971459998316, 18.4144110003002]]}}, {"type": "Feature", "properties": {"OBJECTID": 286, "cable_id": 1774, "Name": "Jerry Newton", "color": "#0982c5", "length": "n.a.", "rfs": "October 2007", "owners": "C&W Networks", "url": null, "Symbol": 13, "year": 2007}, "geometry": {"type": "LineString", "coordinates": [[-68.2840569996509, 12.1641450002696], [-68.7890370000031, 11.9995149996655], [-68.8741930003805, 12.0047690000285], [-68.892650000007, 12.0904369996532]]}}, {"type": "Feature", "properties": {"OBJECTID": 298, "cable_id": 1787, "Name": "Monet", "color": "#b3b5b7", "length": "10,556 km", "rfs": "Q4 2016", "owners": "Angola Cables,  Google,  Algar Telecom,  Antel Uruguay", "url": null, "Symbol": 1, "year": 2016}, "geometry": {"type": "MultiLineString", "coordinates": [[[-46.3280670002097, -23.9618450000981], [-38.5366169996819, -27.5552459997654], [-27.6767619995812, -13.1158180000711], [-27.6767619995812, -3.65529400039418], [-33.5425780004163, 1.06491299986209]], [[-33.5425780004163, 1.06491299986209], [-38.5429650003327, -3.71873699985809]], [[-33.5425780004163, 1.06491299986209], [-51.1944210002114, 19.8024680002445], [-75.3996769998446, 27.4829890002638], [-78.8024090003299, 27.4829890002638], [-80.0889319998463, 26.3505859996049]]]}}, {"type": "Feature", "properties": {"OBJECTID": 299, "cable_id": 1791, "Name": "South America Pacific Link (SAPL)", "color": "#9ea0a2", "length": "17,600 km", "rfs": "Q4 2017", "owners": "Ocean Networks", "url": "http://www.oceannetworks.com", "Symbol": 0, "year": 2017}, "geometry": {"type": "MultiLineString", "coordinates": [[[-70.6505589996395, -33.4372600001204], [-78.6723800000456, -34.1902080000662], [-81.7273579996445, -20.611717000266], [-83.2054819995608, -13.5045970002213], [-85.8944939997674, -0.097036000247337], [-85.8945430001712, -0.097036000247337], [-83.9306279998233, 3.00851200023846]], [[-83.9306279998233, 3.00851200023846], [-80.9682280000568, 4.94232699999499], [-79.3439129999479, 7.49835600028056], [-79.5666170001489, 8.95031600006586]], [[-79.5465489996211, 8.93411000012268], [-79.9002600004477, 9.35380399992786], [-79.5246740001699, 10.9694050002535], [-68.9863030002652, 16.1268119999607], [-67.9260979996946, 18.4657349996941], [-68.1018789995946, 20.5691799998048], [-74.7135450003563, 28.4418719996773], [-81.6556299999645, 30.3320980002663]], [[-158.206014999704, 21.4605389998927], [-157.49952099996, 21.9043790000834], [-148.299821000417, 20.14050599979], [-83.9306279998233, 3.00851200023846]]]}}, {"type": "Feature", "properties": {"OBJECTID": 303, "cable_id": 1799, "Name": "TT-1", "color": "#0982c5", "length": "48 km", "rfs": "August 2012", "owners": "C&W Networks,  TSTT,  Alliance Telecommunications", "url": "http://www.columbus-networks.com/", "Symbol": 13, "year": 2012}, "geometry": {"type": "LineString", "coordinates": [[-60.9495900003701, 10.8315090000703], [-60.8402639999251, 11.1657809998156]]}}, {"type": "Feature", "properties": {"OBJECTID": 323, "cable_id": 1829, "Name": "Global Caribbean Network (GCN)", "color": "#b2703f", "length": "n.a.", "rfs": "September 2006", "owners": "Leucadia National Corporation,  Loret Group", "url": "http://www.globalcaribbean.net", "Symbol": 4, "year": 2006}, "geometry": {"type": "LineString", "coordinates": [[-61.5548140004072, 16.2430129998832], [-61.5263960003117, 15.9887650002545], [-61.6077919996594, 15.8927980000654], [-61.7159459995942, 16.0289409999091], [-61.8809370004434, 15.8809639999328], [-63.1640899998158, 17.2606869999745], [-62.8333770003433, 17.9000599999994], [-63.0500760000252, 18.0928749998291], [-64.1459250003277, 18.2269589997172], [-64.6402610003207, 18.1350139996506], [-64.8192650000516, 17.773909999653], [-65.3096450000946, 18.2269589997172], [-65.7618909997955, 18.5676879999856], [-66.1066660003502, 18.4661050003949]]}}, {"type": "Feature", "properties": {"OBJECTID": 333, "cable_id": 1843, "Name": "San Andrés-Tolú", "color": "#b2703f", "length": "826 km", "rfs": "December 2010", "owners": "Ministerio de Tecnologías de la Información y Comunicaciones", "url": null, "Symbol": 4, "year": 2010}, "geometry": {"type": "LineString", "coordinates": [[-81.7005509995519, 12.5847080002463], [-75.5586609996265, 9.49638399994144]]}}]}